COMMENT,ORIGINATOR,NORAD_CAT_ID,OBJECT_NAME,OBJECT_TYPE,CLASSIFICATION_TYPE,INTLDES,EPOCH,EPOCH_MICROSECONDS,MEAN_MOTION,ECCENTRICITY,INCLINATION,RA_OF_ASC_NODE,ARG_OF_PERICENTER,MEAN_ANOMALY,EPHEMERIS_TYPE,ELEMENT_SET_NO,REV_AT_EPOCH,BSTAR,MEAN_MOTION_DOT,MEAN_MOTION_DDOT,FILE,TLE_LINE0,TLE_LINE1,TLE_LINE2,OBJECT_ID,OBJECT_NUMBER,SEMIMAJOR_AXIS,PERIOD,APOGEE,PERIGEE,DECAYED,date
GENERATED VIA SPACETRACK.ORG API,18 SPCS,52180,SPACEBEE-134,PAYLOAD,U,22033Z,2023/3/24 19:04,985728,15.37092742,0.0006912,97.3503,166.7263,117.6571,242.5375,0,999,5444,0.0018764,0.00068611,0,3870064,0 SPACEBEE-134,1 52180U 22033Z   23083.79487252  .00068611  00000-0  18764-2 0  9996,2 52180  97.3503 166.7263 0006912 117.6571 242.5375 15.37092742 54447,2022-033Z,52180,6832.849,93.683,459.436,449.991,1,
GENERATED VIA SPACETRACK.ORG API,18 SPCS,52180,SPACEBEE-134,PAYLOAD,U,22033Z,2023/3/24 19:04,985728,15.37092742,0.0006912,97.3503,166.7263,117.6571,242.5375,0,999,5446,0.0018764,0.00068611,0,3870109,0 SPACEBEE-134,1 52180U 22033Z   23083.79487252  .00068611  00000-0  18764-2 0  9996,2 52180  97.3503 166.7263 0006912 117.6571 242.5375 15.37092742 54469,2022-033Z,52180,6832.849,93.683,459.436,449.991,1,
GENERATED VIA SPACETRACK.ORG API,18 SPCS,52180,SPACEBEE-134,PAYLOAD,U,22033Z,2023/3/25 4:27,163904,15.37157235,0.0006962,97.3501,167.1169,117.4548,242.7405,0,999,5450,0.0020264,0.00074312,0,3870745,0 SPACEBEE-134,1 52180U 22033Z   23084.18546486  .00074312  00000-0  20264-2 0  9998,2 52180  97.3501 167.1169 0006962 117.4548 242.7405 15.37157235 54504,2022-033Z,52180,6832.657,93.679,459.279,449.766,1,
GENERATED VIA SPACETRACK.ORG API,18 SPCS,52180,SPACEBEE-134,PAYLOAD,U,22033Z,2023/3/25 18:30,751296,15.37237363,0.0006854,97.3501,167.7033,114.3066,245.8895,0,999,5461,0.0020578,0.00075671,0,3871104,0 SPACEBEE-134,1 52180U 22033Z   23084.77132814  .00075671  00000-0  20578-2 0  9996,2 52180  97.3501 167.7033 0006854 114.3066 245.8895 15.37237363 54611,2022-033Z,52180,6832.42,93.675,458.968,449.602,1,
GENERATED VIA SPACETRACK.ORG API,18 SPCS,52180,SPACEBEE-134,PAYLOAD,U,22033Z,2023/3/26 5:26,834400,15.37299273,0.0006821,97.3502,168.1588,113.3168,246.8795,0,999,5466,0.0017376,0.00063913,0,3871405,0 SPACEBEE-134,1 52180U 22033Z   23085.22697725  .00063913  00000-0  17376-2 0  9992,2 52180  97.3502 168.1588 0006821 113.3168 246.8795 15.37299273 54661,2022-033Z,52180,6832.237,93.671,458.762,449.441,1,
GENERATED VIA SPACETRACK.ORG API,18 SPCS,52180,SPACEBEE-134,PAYLOAD,U,22033Z,2023/3/26 17:56,355168,15.37354403,0.000673,97.3499,168.6803,111.0838,249.1127,0,999,5476,0.0017328,0.00063848,0,3871964,0 SPACEBEE-134,1 52180U 22033Z   23085.74770087  .00063848  00000-0  17328-2 0  9996,2 52180  97.3499 168.6803 0006730 111.0838 249.1127 15.37354403 54762,2022-033Z,52180,6832.073,93.667,458.536,449.34,1,
GENERATED VIA SPACETRACK.ORG API,18 SPCS,52180,SPACEBEE-134,PAYLOAD,U,22033Z,2023/3/27 4:52,464384,15.3741243,0.0006696,97.3499,169.1359,110.2825,249.914,0,999,5481,0.0016192,0.00059737,0,3872263,0 SPACEBEE-134,1 52180U 22033Z   23086.20331556  .00059737  00000-0  16192-2 0  9992,2 52180  97.3499 169.1359 0006696 110.2825 249.9140 15.37412430 54816,2022-033Z,52180,6831.901,93.664,458.341,449.192,1,
GENERATED VIA SPACETRACK.ORG API,18 SPCS,52180,SPACEBEE-134,PAYLOAD,U,22033Z,2023/3/27 12:41,539488,15.37448069,0.0006644,97.3498,169.4619,108.6448,251.5519,0,999,5488,0.0015935,0.00058847,0,3872569,0 SPACEBEE-134,1 52180U 22033Z   23086.52874467  .00058847  00000-0  15935-2 0  9995,2 52180  97.3498 169.4619 0006644 108.6448 251.5519 15.37448069 54885,2022-033Z,52180,6831.796,93.662,458.2,449.122,1,
GENERATED VIA SPACETRACK.ORG API,18 SPCS,52180,SPACEBEE-134,PAYLOAD,U,22033Z,2023/3/27 18:56,749600,15.37477916,0.0006586,97.3498,169.7223,107.7786,252.4178,0,999,5492,0.0015025,0.00055511,0,3872915,0 SPACEBEE-134,1 52180U 22033Z   23086.78908275  .00055511  00000-0  15025-2 0  9993,2 52180  97.3498 169.7223 0006586 107.7786 252.4178 15.37477916 54928,2022-033Z,52180,6831.707,93.66,458.072,449.073,1,
GENERATED VIA SPACETRACK.ORG API,18 SPCS,52180,SPACEBEE-134,PAYLOAD,U,22033Z,2023/3/28 4:18,564256,15.37532746,0.0006554,97.3499,170.113,106.8986,253.2978,0,999,5498,0.0016692,0.00061838,0,3873565,0 SPACEBEE-134,1 52180U 22033Z   23087.17957829  .00061838  00000-0  16692-2 0  9996,2 52180  97.3499 170.1130 0006554 106.8986 253.2978 15.37532746 54985,2022-033Z,52180,6831.545,93.657,457.887,448.932,1,
GENERATED VIA SPACETRACK.ORG API,18 SPCS,52180,SPACEBEE-134,PAYLOAD,U,22033Z,2023/3/28 18:22,747200,15.37609984,0.0006451,97.3498,170.6993,103.6662,256.5302,0,999,5505,0.0017913,0.00066573,0,3873906,0 SPACEBEE-134,1 52180U 22033Z   23087.76529800  .00066573  00000-0  17913-2 0  9993,2 52180  97.3498 170.6993 0006451 103.6662 256.5302 15.37609984 55053,2022-033Z,52180,6831.316,93.652,457.588,448.774,1,
GENERATED VIA SPACETRACK.ORG API,18 SPCS,52180,SPACEBEE-134,PAYLOAD,U,22033Z,2023/3/28 18:22,747200,15.37609984,0.0006451,97.3498,170.6993,103.6662,256.5302,0,999,5507,0.0017913,0.00066573,0,3873921,0 SPACEBEE-134,1 52180U 22033Z   23087.76529800  .00066573  00000-0  17913-2 0  9993,2 52180  97.3498 170.6993 0006451 103.6662 256.5302 15.37609984 55075,2022-033Z,52180,6831.316,93.652,457.588,448.774,1,
GENERATED VIA SPACETRACK.ORG API,18 SPCS,52180,SPACEBEE-134,PAYLOAD,U,22033Z,2023/3/29 5:18,155232,15.37680721,0.0006457,97.3499,171.1551,102.8167,257.38,0,999,5514,0.0018384,0.00068499,0,3874492,0 SPACEBEE-134,1 52180U 22033Z   23088.22083513  .00068499  00000-0  18384-2 0  9993,2 52180  97.3499 171.1551 0006457 102.8167 257.3800 15.37680721 55147,2022-033Z,52180,6831.107,93.648,457.382,448.561,1,
GENERATED VIA SPACETRACK.ORG API,18 SPCS,52180,SPACEBEE-134,PAYLOAD,U,22033Z,2023/3/29 17:47,205536,15.37751958,0.0006368,97.3497,171.6768,100.7414,259.4548,0,999,5520,0.0019066,0.00071231,0,3874765,0 SPACEBEE-134,1 52180U 22033Z   23088.74142599  .00071231  00000-0  19066-2 0  9996,2 52180  97.3497 171.6768 0006368 100.7414 259.4548 15.37751958 55203,2022-033Z,52180,6830.896,93.643,457.111,448.411,1,
GENERATED VIA SPACETRACK.ORG API,18 SPCS,52180,SPACEBEE-134,PAYLOAD,U,22033Z,2023/3/29 17:47,205536,15.37751958,0.0006368,97.3497,171.6768,100.7414,259.4548,0,999,5522,0.0019066,0.00071231,0,3874790,0 SPACEBEE-134,1 52180U 22033Z   23088.74142599  .00071231  00000-0  19066-2 0  9996,2 52180  97.3497 171.6768 0006368 100.7414 259.4548 15.37751958 55225,2022-033Z,52180,6830.896,93.643,457.111,448.411,1,
GENERATED VIA SPACETRACK.ORG API,18 SPCS,52180,SPACEBEE-134,PAYLOAD,U,22033Z,2023/3/30 18:46,630880,15.37910066,0.0006246,97.3499,172.7193,97.287,262.9085,0,999,5536,0.0022036,0.00082885,0,3875694,0 SPACEBEE-134,1 52180U 22033Z   23089.78253045  .00082885  00000-0  22036-2 0  9998,2 52180  97.3499 172.7193 0006246  97.2870 262.9085 15.37910066 55369,2022-033Z,52180,6830.427,93.634,456.559,448.026,1,
GENERATED VIA SPACETRACK.ORG API,18 SPCS,52180,SPACEBEE-134,PAYLOAD,U,22033Z,2023/4/1 5:07,171872,15.38133099,0.0006228,97.35,174.1523,93.1165,267.0793,0,999,5558,0.001961,0.00074201,0,3876918,0 SPACEBEE-134,1 52180U 22033Z   23091.21386773  .00074201  00000-0  19610-2 0  9991,2 52180  97.3500 174.1523 0006228  93.1165 267.0793 15.38133099 55587,2022-033Z,52180,6829.767,93.62,455.886,447.379,1,
GENERATED VIA SPACETRACK.ORG API,18 SPCS,52180,SPACEBEE-134,PAYLOAD,U,22033Z,2023/4/1 11:22,411424,15.38159121,0.0006161,97.3501,174.4135,91.769,268.4261,0,999,5564,0.0016752,0.00063339,0,3877270,0 SPACEBEE-134,1 52180U 22033Z   23091.47409041  .00063339  00000-0  16752-2 0  9997,2 52180  97.3501 174.4135 0006161  91.7690 268.4261 15.38159121 55649,2022-033Z,52180,6829.69,93.618,455.763,447.347,1,
GENERATED VIA SPACETRACK.ORG API,18 SPCS,52180,SPACEBEE-134,PAYLOAD,U,22033Z,2023/4/1 17:37,152448,15.38197856,0.0006045,97.3499,174.6741,90.3522,269.8415,0,999,5566,0.0018701,0.00070874,0,3877491,0 SPACEBEE-134,1 52180U 22033Z   23091.73430732  .00070874  00000-0  18701-2 0  9995,2 52180  97.3499 174.6741 0006045  90.3522 269.8415 15.38197856 55665,2022-033Z,52180,6829.575,93.616,455.569,447.312,1,
GENERATED VIA SPACETRACK.ORG API,18 SPCS,52180,SPACEBEE-134,PAYLOAD,U,22033Z,2023/4/1 17:37,152448,15.38197856,0.0006045,97.3499,174.6741,90.3522,269.8415,0,999,5568,0.0018701,0.00070874,0,3877516,0 SPACEBEE-134,1 52180U 22033Z   23091.73430732  .00070874  00000-0  18701-2 0  9995,2 52180  97.3499 174.6741 0006045  90.3522 269.8415 15.38197856 55687,2022-033Z,52180,6829.575,93.616,455.569,447.312,1,
GENERATED VIA SPACETRACK.ORG API,18 SPCS,52180,SPACEBEE-134,PAYLOAD,U,22033Z,2023/4/2 10:47,944256,15.38294281,0.0005974,97.3501,175.3908,87.93,272.2629,0,999,5579,0.001875,0.00071285,0,3878126,0 SPACEBEE-134,1 52180U 22033Z   23092.44987204  .00071285  00000-0  18750-2 0  9996,2 52180  97.3501 175.3908 0005974  87.9300 272.2629 15.38294281 55797,2022-033Z,52180,6829.29,93.61,455.235,447.075,1,
GENERATED VIA SPACETRACK.ORG API,18 SPCS,52180,SPACEBEE-134,PAYLOAD,U,22033Z,2023/4/2 17:02,757696,15.38329523,0.0006006,97.3497,175.651,87.4371,272.7562,0,999,5583,0.0018117,0.00068934,0,3878419,0 SPACEBEE-134,1 52180U 22033Z   23092.71006664  .00068934  00000-0  18117-2 0  9992,2 52180  97.3497 175.6510 0006006  87.4371 272.7562 15.38329523 55837,2022-033Z,52180,6829.186,93.608,455.152,446.949,1,
GENERATED VIA SPACETRACK.ORG API,18 SPCS,52180,SPACEBEE-134,PAYLOAD,U,22033Z,2023/4/3 5:31,758528,15.38403757,0.0005985,97.35,176.1724,86.6572,273.5358,0,999,5589,0.0018136,0.00069175,0,3878702,0 SPACEBEE-134,1 52180U 22033Z   23093.23043702  .00069175  00000-0  18136-2 0  9993,2 52180  97.3500 176.1724 0005985  86.6572 273.5358 15.38403757 55894,2022-033Z,52180,6828.966,93.604,454.918,446.744,1,
